BEIJING 1               
1 28890U 05043A   26066.62123242  .00000855  00000+0  17446-3 0  9993
2 28890  98.2731 199.3680 0013494 237.1716 122.8187 14.63459156 85795
HUANJING 1A (HJ-1A)     
1 33320U 08041A   26066.61204883  .00000244  00000+0  35571-4 0  9990
2 33320  97.6635  56.4311 0020602 109.9571 250.3865 14.83708927943342
HUANJING 1B (HJ-1B)     
1 33321U 08041B   26066.60447740  .00001631  00000+0  20416-3 0  9993
2 33321  97.6479  59.8922 0036988 154.5246 205.7802 14.83096336943353
YAOGAN-4                
1 33446U 08061A   26066.35842491  .00002023  00000+0  25522-3 0  9996
2 33446  97.9249   0.6755 0015489  46.4045 313.8451 14.82970537930570
DEIMOS-1                
1 35681U 09041A   26066.57760203  .00000823  00000+0  12904-3 0  9998
2 35681  97.7255 228.2856 0002191 121.7128 238.4296 14.75111401891904
UK-DMC 2                
1 35683U 09041C   26066.60204278  .00001401  00000+0  21147-3 0  9991
2 35683  97.8653 204.1617 0001104  91.3474 268.7863 14.75845899891581
DMC3-FM1                
1 40715U 15032A   26066.64038743  .00000523  00000+0  66401-4 0  9993
2 40715  97.6611 295.7131 0006507  38.9597 321.2087 14.85607459574835
DMC3-FM2                
1 40716U 15032B   26066.59537269  .00001108  00000+0  13388-3 0  9990
2 40716  97.6667 297.1736 0007179  43.1839 316.9938 14.85613436574824
DMC3-FM3                
1 40717U 15032C   26066.61844498  .00000918  00000+0  11197-3 0  9993
2 40717  97.6723 298.8834 0006457  44.0910 316.0820 14.85613153574831
