[{"OBJECT_NAME":"BEIJING 1","OBJECT_ID":"2005-043A","EPOCH":"2026-03-07T14:54:34.481088","MEAN_MOTION":14.63459156,"ECCENTRICITY":0.0013494,"INCLINATION":98.2731,"RA_OF_ASC_NODE":199.368,"ARG_OF_PERICENTER":237.1716,"MEAN_ANOMALY":122.8187,"EPHEMERIS_TYPE":0,"CLASSIFICATION_TYPE":"U","NORAD_CAT_ID":28890,"ELEMENT_SET_NO":999,"REV_AT_EPOCH":8579,"BSTAR":0.00017445789,"MEAN_MOTION_DOT":8.55e-6,"MEAN_MOTION_DDOT":0},{"OBJECT_NAME":"HUANJING 1A (HJ-1A)","OBJECT_ID":"2008-041A","EPOCH":"2026-03-07T14:41:21.018912","MEAN_MOTION":14.83708927,"ECCENTRICITY":0.00206024,"INCLINATION":97.6635,"RA_OF_ASC_NODE":56.4311,"ARG_OF_PERICENTER":109.9571,"MEAN_ANOMALY":250.3865,"EPHEMERIS_TYPE":0,"CLASSIFICATION_TYPE":"U","NORAD_CAT_ID":33320,"ELEMENT_SET_NO":999,"REV_AT_EPOCH":94334,"BSTAR":3.5570556e-5,"MEAN_MOTION_DOT":2.44e-6,"MEAN_MOTION_DDOT":0},{"OBJECT_NAME":"HUANJING 1B (HJ-1B)","OBJECT_ID":"2008-041B","EPOCH":"2026-03-07T14:30:26.847360","MEAN_MOTION":14.83096336,"ECCENTRICITY":0.00369886,"INCLINATION":97.6479,"RA_OF_ASC_NODE":59.8922,"ARG_OF_PERICENTER":154.5246,"MEAN_ANOMALY":205.7802,"EPHEMERIS_TYPE":0,"CLASSIFICATION_TYPE":"U","NORAD_CAT_ID":33321,"ELEMENT_SET_NO":999,"REV_AT_EPOCH":94335,"BSTAR":0.00020416407,"MEAN_MOTION_DOT":1.631e-5,"MEAN_MOTION_DDOT":0},{"OBJECT_NAME":"YAOGAN-4","OBJECT_ID":"2008-061A","EPOCH":"2026-03-07T08:36:07.912224","MEAN_MOTION":14.82970537,"ECCENTRICITY":0.00154897,"INCLINATION":97.9249,"RA_OF_ASC_NODE":0.6755,"ARG_OF_PERICENTER":46.4045,"MEAN_ANOMALY":313.8451,"EPHEMERIS_TYPE":0,"CLASSIFICATION_TYPE":"U","NORAD_CAT_ID":33446,"ELEMENT_SET_NO":999,"REV_AT_EPOCH":93057,"BSTAR":0.00025522419,"MEAN_MOTION_DOT":2.023e-5,"MEAN_MOTION_DDOT":0},{"OBJECT_NAME":"DEIMOS-1","OBJECT_ID":"2009-041A","EPOCH":"2026-03-07T13:51:44.815392","MEAN_MOTION":14.75111401,"ECCENTRICITY":0.0002191,"INCLINATION":97.7255,"RA_OF_ASC_NODE":228.2856,"ARG_OF_PERICENTER":121.7128,"MEAN_ANOMALY":238.4296,"EPHEMERIS_TYPE":0,"CLASSIFICATION_TYPE":"U","NORAD_CAT_ID":35681,"ELEMENT_SET_NO":999,"REV_AT_EPOCH":89190,"BSTAR":0.00012904035,"MEAN_MOTION_DOT":8.23e-6,"MEAN_MOTION_DDOT":0},{"OBJECT_NAME":"UK-DMC 2","OBJECT_ID":"2009-041C","EPOCH":"2026-03-07T14:26:56.496192","MEAN_MOTION":14.75845899,"ECCENTRICITY":0.00011048,"INCLINATION":97.8653,"RA_OF_ASC_NODE":204.1617,"ARG_OF_PERICENTER":91.3474,"MEAN_ANOMALY":268.7863,"EPHEMERIS_TYPE":0,"CLASSIFICATION_TYPE":"U","NORAD_CAT_ID":35683,"ELEMENT_SET_NO":999,"REV_AT_EPOCH":89158,"BSTAR":0.00021147059,"MEAN_MOTION_DOT":1.401e-5,"MEAN_MOTION_DDOT":0},{"OBJECT_NAME":"DMC3-FM1","OBJECT_ID":"2015-032A","EPOCH":"2026-03-07T15:22:09.473952","MEAN_MOTION":14.85607459,"ECCENTRICITY":0.00065073,"INCLINATION":97.6611,"RA_OF_ASC_NODE":295.7131,"ARG_OF_PERICENTER":38.9597,"MEAN_ANOMALY":321.2087,"EPHEMERIS_TYPE":0,"CLASSIFICATION_TYPE":"U","NORAD_CAT_ID":40715,"ELEMENT_SET_NO":999,"REV_AT_EPOCH":57483,"BSTAR":6.6401223e-5,"MEAN_MOTION_DOT":5.23e-6,"MEAN_MOTION_DDOT":0},{"OBJECT_NAME":"DMC3-FM2","OBJECT_ID":"2015-032B","EPOCH":"2026-03-07T14:17:20.200416","MEAN_MOTION":14.85613436,"ECCENTRICITY":0.00071794,"INCLINATION":97.6667,"RA_OF_ASC_NODE":297.1736,"ARG_OF_PERICENTER":43.1839,"MEAN_ANOMALY":316.9938,"EPHEMERIS_TYPE":0,"CLASSIFICATION_TYPE":"U","NORAD_CAT_ID":40716,"ELEMENT_SET_NO":999,"REV_AT_EPOCH":57482,"BSTAR":0.00013387943,"MEAN_MOTION_DOT":1.108e-5,"MEAN_MOTION_DDOT":0},{"OBJECT_NAME":"DMC3-FM3","OBJECT_ID":"2015-032C","EPOCH":"2026-03-07T14:50:33.646272","MEAN_MOTION":14.85613153,"ECCENTRICITY":0.00064573,"INCLINATION":97.6723,"RA_OF_ASC_NODE":298.8834,"ARG_OF_PERICENTER":44.091,"MEAN_ANOMALY":316.082,"EPHEMERIS_TYPE":0,"CLASSIFICATION_TYPE":"U","NORAD_CAT_ID":40717,"ELEMENT_SET_NO":999,"REV_AT_EPOCH":57483,"BSTAR":0.00011197323,"MEAN_MOTION_DOT":9.18e-6,"MEAN_MOTION_DDOT":0}]
